{"type": "FeatureCollection", "features": [{"type": "Feature", "id": "DIANA", "properties": {"code": "11", "name": "Diana", "capital": "Antsiranana"}, "geometry": {"type": "Polygon", "coordinates": [[[49.1, -12.0], [49.6, -12.0], [49.8, -12.4], [49.5, -13.0], [48.8, -14.0], [48.1, -14.0], [48.0, -13.6], [48.3, -13.0], [49.1, -12.0]]]}}, {"type": "Feature", "id": "SAVA", "properties": {"code": "12", "name": "Sava", "capital": "Sambava"}, "geometry": {"type": "Polygon", "coordinates": [[[49.5, -13.0], [50.5, -13.8], [50.4, -15.2], [49.6, -15.5], [48.8, -14.0], [49.5, -13.0]]]}}, {"type": "Feature", "id": "SOFIA", "properties": {"code": "31", "name": "Sofia", "capital": "Antsohihy"}, "geometry": {"type": "Polygon", "coordinates": [[[48.1, -14.0], [48.8, -14.0], [49.6, -15.5], [48.6, -16.2], [47.0, -16.0], [47.2, -14.8], [48.1, -14.0]]]}}, {"type": "Feature", "id": "BOENY", "properties": {"code": "41", "name": "Boeny", "capital": "Mahajanga"}, "geometry": {"type": "Polygon", "coordinates": [[[47.0, -16.0], [48.6, -16.2], [47.8, -17.0], [46.2, -16.8], [45.8, -15.8], [46.5, -15.5], [47.0, -16.0]]]}}, {"type": "Feature", "id": "ANALAMANGA", "properties": {"code": "111", "name": "Analamanga", "capital": "Antananarivo"}, "geometry": {"type": "Polygon", "coordinates": [[[47.0, -18.2], [48.1, -18.2], [48.1, -19.3], [47.1, -19.3], [46.8, -18.7], [47.0, -18.2]]]}}, {"type": "Feature", "id": "ATSINANANA", "properties": {"code": "51", "name": "Atsinanana", "capital": "Toamasina"}, "geometry": {"type": "Polygon", "coordinates": [[[48.6, -16.2], [49.8, -17.2], [49.2, -19.5], [48.3, -19.5], [48.1, -18.2], [48.6, -16.2]]]}}, {"type": "Feature", "id": "ALAOTRA_MANGORO", "properties": {"code": "52", "name": "Alaotra-Mangoro", "capital": "Ambatondrazaka"}, "geometry": {"type": "Polygon", "coordinates": [[[47.8, -17.0], [48.6, -16.2], [48.1, -18.2], [48.3, -19.5], [47.5, -19.0], [47.8, -17.0]]]}}, {"type": "Feature", "id": "VAKINANKARATRA", "properties": {"code": "112", "name": "Vakinankaratra", "capital": "Antsirabe"}, "geometry": {"type": "Polygon", "coordinates": [[[46.5, -19.2], [47.5, -19.0], [47.5, -20.2], [46.2, -20.0], [46.5, -19.2]]]}}, {"type": "Feature", "id": "BONGOLAVA_MELAKY", "properties": {"code": "42", "name": "Bongolava & Melaky", "capital": "Tsiroanomandidy / Maintirano"}, "geometry": {"type": "Polygon", "coordinates": [[[44.0, -17.5], [46.2, -16.8], [47.0, -18.2], [46.5, -19.2], [44.0, -19.0], [44.0, -17.5]]]}}, {"type": "Feature", "id": "MENABE", "properties": {"code": "21", "name": "Menabe", "capital": "Morondava"}, "geometry": {"type": "Polygon", "coordinates": [[[44.0, -19.0], [46.5, -19.2], [46.2, -20.0], [45.8, -21.2], [44.2, -21.0], [44.0, -19.0]]]}}, {"type": "Feature", "id": "HAUTE_MATSIATRA", "properties": {"code": "22", "name": "Haute Matsiatra", "capital": "Fianarantsoa"}, "geometry": {"type": "Polygon", "coordinates": [[[46.2, -20.0], [47.5, -20.2], [47.8, -21.8], [46.5, -21.8], [46.2, -20.0]]]}}, {"type": "Feature", "id": "VATOVAVY_FITOVINANY", "properties": {"code": "53", "name": "Vatovavy-Fitovinany", "capital": "Manakara / Mananjary"}, "geometry": {"type": "Polygon", "coordinates": [[[47.5, -20.2], [48.3, -19.5], [48.2, -22.5], [47.5, -22.5], [47.8, -21.8], [47.5, -20.2]]]}}, {"type": "Feature", "id": "ATSIMO_ANDREFANA", "properties": {"code": "61", "name": "Atsimo-Andrefana", "capital": "Toliara"}, "geometry": {"type": "Polygon", "coordinates": [[[44.2, -21.0], [46.5, -21.8], [46.2, -23.5], [44.5, -25.2], [43.5, -23.5], [44.2, -21.0]]]}}, {"type": "Feature", "id": "ANOSY_ANDROY", "properties": {"code": "62", "name": "Anosy & Androy", "capital": "Taolagnaro (Fort-Dauphin) / Ambovombe"}, "geometry": {"type": "Polygon", "coordinates": [[[46.5, -21.8], [47.5, -22.5], [47.2, -25.2], [44.5, -25.2], [46.2, -23.5], [46.5, -21.8]]]}}]}